[{"OBJECT_NAME":"STARLINK-4034","OBJECT_ID":"2022-053AW","EPOCH":"2026-03-09T11:41:52.098720","MEAN_MOTION":15.08836902,"ECCENTRICITY":0.00015056,"INCLINATION":53.2168,"RA_OF_ASC_NODE":149.6722,"ARG_OF_PERICENTER":83.6284,"MEAN_ANOMALY":276.4879,"EPHEMERIS_TYPE":0,"CLASSIFICATION_TYPE":"U","NORAD_CAT_ID":52700,"ELEMENT_SET_NO":999,"REV_AT_EPOCH":21106,"BSTAR":3.0641305e-5,"MEAN_MOTION_DOT":2.0e-6,"MEAN_MOTION_DDOT":0},{"OBJECT_NAME":"CHUANGXIN 16A (CX-16A)","OBJECT_ID":"2022-102A","EPOCH":"2026-03-09T19:59:28.991616","MEAN_MOTION":15.05552649,"ECCENTRICITY":0.0005063,"INCLINATION":28.9941,"RA_OF_ASC_NODE":256.1289,"ARG_OF_PERICENTER":43.7318,"MEAN_ANOMALY":316.3682,"EPHEMERIS_TYPE":0,"CLASSIFICATION_TYPE":"U","NORAD_CAT_ID":53586,"ELEMENT_SET_NO":999,"REV_AT_EPOCH":19453,"BSTAR":0.00020134,"MEAN_MOTION_DOT":3.128e-5,"MEAN_MOTION_DDOT":0}]
